TEVEL2-6                
1 63215U 25052F   26068.64958975  .00021046  00000+0  70909-3 0  9996
2 63215  97.4016 325.0381 0004769  95.6604 264.5181 15.30760889 54861
STARLINK-35196          
1 66007U 25232C   26068.79249760  .00020056  00000+0  68743-3 0  9992
2 66007  53.1586 103.2665 0001502  80.3479 279.7692 15.30200138 23449
